{
    "links": {
        "self": "http://www.neowsapp.com/rest/v1/neo/54054323?api_key=iIulBulltgU6a56xZRHN4H3l9WmuAYTsLGpBGhQ2"
    },
    "id": "54054323",
    "neo_reference_id": "54054323",
    "name": "(2020 RR6)",
    "designation": "2020 RR6",
    "nasa_jpl_url": "http://ssd.jpl.nasa.gov/sbdb.cgi?sstr=54054323",
    "absolute_magnitude_h": 25.492,
    "estimated_diameter": {
        "kilometers": {
            "estimated_diameter_min": 0.021191172,
            "estimated_diameter_max": 0.0473849011
        },
        "meters": {
            "estimated_diameter_min": 21.1911720058,
            "estimated_diameter_max": 47.384901128
        },
        "miles": {
            "estimated_diameter_min": 0.0131675797,
            "estimated_diameter_max": 0.0294436034
        },
        "feet": {
            "estimated_diameter_min": 69.5248447636,
            "estimated_diameter_max": 155.4622790166
        }
    },
    "is_potentially_hazardous_asteroid": false,
    "close_approach_data": [
        {
            "close_approach_date": "2020-09-01",
            "close_approach_date_full": "2020-Sep-01 05:09",
            "epoch_date_close_approach": 1598936940000,
            "relative_velocity": {
                "kilometers_per_second": "6.4204039575",
                "kilometers_per_hour": "23113.4542468909",
                "miles_per_hour": "14361.801612464"
            },
            "miss_distance": {
                "astronomical": "0.0973681739",
                "lunar": "37.8762196471",
                "kilometers": "14566071.421229593",
                "miles": "9050937.0836226634"
            },
            "orbiting_body": "Earth"
        }
    ],
    "orbital_data": {
        "orbit_id": "3",
        "orbit_determination_date": "2020-11-01 05:40:54",
        "first_observation_date": "2020-09-12",
        "last_observation_date": "2020-09-21",
        "data_arc_in_days": 9,
        "observations_used": 24,
        "orbit_uncertainty": "8",
        "minimum_orbit_intersection": ".0951592",
        "jupiter_tisserand_invariant": "3.524",
        "epoch_osculation": "2459106.5",
        "eccentricity": ".4917468582093486",
        "semi_major_axis": "2.159050484791839",
        "inclination": "6.94440861929233",
        "ascending_node_longitude": "355.7297831067199",
        "orbital_period": "1158.757673466273",
        "perihelion_distance": "1.097344192180081",
        "perihelion_argument": "341.4642225090116",
        "aphelion_distance": "3.220756777403596",
        "perihelion_time": "2459091.064159634891",
        "mean_anomaly": "4.795569132946051",
        "mean_motion": ".3106775542837241",
        "equinox": "J2000",
        "orbit_class": {
            "orbit_class_type": "AMO",
            "orbit_class_description": "Near-Earth asteroid orbits similar to that of 1221 Amor",
            "orbit_class_range": "1.017 AU < q (perihelion) < 1.3 AU"
        }
    },
    "is_sentry_object": false
}